satname,norad_id,inclination_deg,eccentricity,mean_motion_rev_per_day,perigee_km,apogee_km,l1,l2
STARLINK-1008,44714,53.1519,0.0002695,15.48634171,418.8883754789513,422.55295976179787,1 44714U 19074B   26156.63580274  .00072911  00000+0  13379-2 0  9990,2 44714  53.1519 123.9760 0002695  85.5406 274.5911 15.48634171362420
STARLINK-1012,44718,53.1566,0.0002773,15.48911714,418.0233728091898,421.79356882730644,1 44718U 19074F   26156.76322961  .00065020  00000+0  11837-2 0  9995,2 44718  53.1566 123.6586 0002773  80.2159 279.9163 15.48911714362433
STARLINK-1017,44723,53.0466,0.0005207,15.31144075,468.8306067004769,475.9647535163431,1 44723U 19074L   26156.19893882  .00047237  00000+0  15503-2 0  9997,2 44723  53.0466 125.4060 0005207  31.2505 328.8803 15.31144075362345
STARLINK-1020,44725,53.1567,0.0004528,15.53988232,402.02386210157965,408.16675728123573,1 44725U 19074N   26156.27799080  .00070453  00000+0  10686-2 0  9996,2 44725  53.1567 150.1268 0004528  49.3432 310.7972 15.53988232362004
STARLINK-1036,44741,53.0415,0.0003063,15.68905306,359.9659475045437,364.09497409102914,1 44741U 19074AE  26156.62504404  .00058274  00000+0  49860-3 0  9991,2 44741  53.0415 117.8248 0003063   7.8243 352.2821 15.68905306362486
STARLINK-1039,44744,53.0588,0.0003376,15.28362437,478.39165196550493,483.0227435678362,1 44744U 19074AH  26156.35451617  .00032510  00000+0  11688-2 0  9992,2 44744  53.0588 170.0103 0003376  32.8610 327.2598 15.28362437361732
STARLINK-1042,44747,53.0427,0.0003084,15.54066758,402.7749277977982,406.95868454544507,1 44747U 19074AL  26156.80998360  .00031367  00000+0  48082-3 0  9994,2 44747  53.0427  30.5862 0003084  94.5791 265.5571 15.54066758363755
STARLINK-1043,44748,53.0483,0.0001092,15.62342315,380.154969780574,381.63114194477475,1 44748U 19074AM  26156.65050828  .00039364  00000+0  44064-3 0  9997,2 44748  53.0483 127.8470 0001092  73.6316 286.4817 15.62342315362356
STARLINK-1046,44751,53.0465,0.0007431,15.54423989,398.7878614427618,408.86721714105715,1 44751U 19074AQ  26155.25836200  .00042467  00000+0  63859-3 0  9993,2 44751  53.0465 156.0397 0007431  43.2632 316.8960 15.54423989361836
STARLINK-1047,44752,53.069,0.0003783,15.34499242,459.8205096837528,464.99606624862827,1 44752U 19074AR  26156.54336716  .00009022  00000+0  27695-3 0  9992,2 44752  53.0690  94.9889 0003783 103.9987 256.1435 15.34499242362822
STARLINK-1048,44753,53.0441,0.0006805,15.67045375,362.77237753034024,371.9530026085258,1 44753U 19074AS  26156.55160321  .00054596  00000+0  50400-3 0  9997,2 44753  53.0441 100.1600 0006805  50.0631 310.0981 15.67045375362729
STARLINK-1063,44768,53.1549,0.0002535,15.48597827,419.10350462260885,422.55057939190556,1 44768U 19074BH  26156.71299573  .00073297  00000+0  13466-2 0  9992,2 44768  53.1549 164.6329 0002535  44.3466 315.7745 15.48597827361874
STARLINK-1067,44771,53.0426,0.0002056,15.76305373,339.5377166392409,342.3005925300058,1 44771U 19074BL  26156.91668980  .00145811  00000+0  89610-3 0  9997,2 44771  53.0426 130.2977 0002056  93.1727 145.9567 15.76305373  5996
STARLINK-1068,44772,53.0417,0.0002245,15.74982804,343.17084262780645,346.18938751247333,1 44772U 19074BM  26156.81817602  .00100912  00000+0  66184-3 0  9998,2 44772  53.0417 104.4695 0002245 113.4027 246.7228 15.74982804362680
STARLINK-1114,44927,53.0408,0.0003774,15.65058637,370.5222199708187,375.6180311091766,1 44927U 20001P   26156.82095598  .00056582  00000+0  56566-3 0  9991,2 44927  53.0408 261.3444 0003774 353.5883   6.5082 15.65058637353837
STARLINK-1123,44930,53.1443,0.0005267,15.57740795,390.630172074053,397.7641488786985,1 44930U 20001S   26156.78654347  .00088525  00000+0  11647-2 0  9995,2 44930  53.1443 288.3716 0005267 300.8066  59.2428 15.57740795353461
STARLINK-1094,44941,53.1526,0.0006094,15.54276795,400.12252204249944,408.3889022800822,1 44941U 20001AD  26156.80465341  .00043268  00000+0  65421-3 0  9999,2 44941  53.1526 263.2454 0006094 329.5285  30.5371 15.54276795353826
STARLINK-1122,44949,53.1551,0.0005324,15.53923787,401.6713604298602,408.8943458895046,1 44949U 20001AM  26156.49412522  .00075224  00000+0  11423-2 0  9994,2 44949  53.1551 265.3478 0005324 327.7682  32.3003 15.53923787353761
STARLINK-1080,44961,53.0445,0.0002274,15.67410258,364.7820883350096,367.84946545794173,1 44961U 20001AZ  26156.44971006  .00042935  00000+0  39257-3 0  9999,2 44961  53.0445 223.5851 0002274  31.7358 328.3794 15.67410258354338
STARLINK-1090,44968,53.1489,0.0004287,15.50266582,413.03446531993905,418.85971301799236,1 44968U 20001BG  26156.79737838  .00072975  00000+0  12642-2 0  9992,2 44968  53.1489 251.5569 0004287 337.5453  22.5368 15.50266582353981
STARLINK-1132,45044,53.15,0.0003902,15.55281406,398.689390327615,403.98009007366727,1 45044U 20006A   26156.58665941  .00079413  00000+0  11469-2 0  9995,2 45044  53.1500 193.6869 0003902  14.9931 345.1196 15.55281406350550
STARLINK-1131,45047,53.1551,0.0005251,15.52031247,407.23131223768087,414.36104986442024,1 45047U 20006D   26156.46744242  .00061534  00000+0  10036-2 0  9991,2 45047  53.1551 227.0430 0005251 352.5924   7.5008 15.52031247350078
STARLINK-1134,45048,53.0251,0.0008275,15.57761809,388.53219896169503,399.7403111988533,1 45048U 20006E   26156.91668980  .00208354  00000+0  26874-2 0  9996,2 45048  53.0251 174.8456 0008275  52.1972   3.1412 15.57761809  5928
STARLINK-1156,45054,53.1565,0.0006427,15.34881797,456.87592467279774,465.6673005034181,1 45054U 20006L   26156.45620590  .00046741  00000+0  13642-2 0  9996,2 45054  53.1565 232.4080 0006427 353.3266   6.7651 15.34881797349993
STARLINK-1166,45060,53.0445,0.0005711,15.5916414,386.2096108883143,393.9402625624416,1 45060U 20006S   26156.78542781  .00093887  00000+0  11694-2 0  9992,2 45060  53.0445 208.5147 0005711 359.3226   0.7777 15.59164140350348
STARLINK-1169,45061,53.1526,0.0005032,15.38091172,448.3174441393212,455.1910466887066,1 45061U 20006T   26156.49569130  .00038058  00000+0  10052-2 0  9994,2 45061  53.1526 230.8644 0005032 317.9310  42.1307 15.38091172350025
STARLINK-1171,45062,53.0384,0.000327,15.73977286,345.34371123400433,349.7423059596267,1 45062U 20006U   26156.31016289  .00058780  00000+0  40639-3 0  9997,2 45062  53.0384 177.0025 0003270 357.7047   2.3955 15.73977286350747
STARLINK-1133,45064,53.155,0.0005072,15.34836849,457.9361251164355,464.8741566641538,1 45064U 20006W   26156.42728507  .00035685  00000+0  10474-2 0  9996,2 45064  53.1550 209.3257 0005072 359.3658   0.7337 15.34836849350325
STARLINK-1167,45071,53.1537,0.0003882,15.37221917,451.67637830611875,456.98110470782467,1 45071U 20006AD  26156.43366861  .00039366  00000+0  10691-2 0  9997,2 45071  53.1537 208.4002 0003882 325.9271  34.1483 15.37221917350334
STARLINK-1168,45072,53.1567,0.0004666,15.34986225,457.7702871977772,464.15253383447,1 45072U 20006AE  26156.53744846  .00043463  00000+0  12660-2 0  9993,2 45072  53.1567 209.0060 0004666   2.0409 358.0612 15.34986225350335
STARLINK-1172,45074,53.1534,0.0004221,15.38264937,448.3572117261856,454.12257169816894,1 45074U 20006AG  26156.78262389  .00048387  00000+0  12665-2 0  9994,2 45074  53.1534 206.1123 0004221 337.8346  22.2475 15.38264937350391
STARLINK-1153,45080,53.1565,0.0005154,15.37209153,450.8450907304423,457.8880354032526,1 45080U 20006AN  26156.41703003  .00044501  00000+0  12066-2 0  9993,2 45080  53.1565 208.3943 0005154 331.4693  28.6027 15.37209153350332
STARLINK-1151,45081,53.0473,0.0001659,15.81222814,325.86916076713715,328.0939190986883,1 45081U 20006AP  26156.91668980  .01314170  00000+0  58654-2 0  9999,2 45081  53.0473 162.6997 0001659 106.3840 263.4599 15.81222814  6003
STARLINK-1185,45087,53.1568,0.0005734,15.45686735,425.45756504441033,433.26440373290734,1 45087U 20006AV  26156.37701537  .00049920  00000+0  10197-2 0  9998,2 45087  53.1568 188.8483 0005734   7.7371 352.3723 15.45686735350607
STARLINK-1183,45088,53.1553,0.0004705,15.34742848,458.46627742827604,464.9025493782892,1 45088U 20006AW  26156.38666318  .00042283  00000+0  12416-2 0  9998,2 45088  53.1553 194.3259 0004705   5.6163 354.4892 15.34742848350525
STARLINK-1152,45096,53.0319,0.0004338,15.48514123,418.12255219049257,424.021545961471,1 45096U 20006BE  26156.26334822  .00058571  00000+0  10826-2 0  9996,2 45096  53.0319 150.1458 0004338  56.1285 304.0134 15.48514123351116
STARLINK-1184,45098,53.051,0.0005027,15.14191595,519.9644805979024,526.9033199810528,1 45098U 20006BG  26156.43029786  .00020169  00000+0  11053-2 0  9992,2 45098  53.0510 207.9105 0005027  29.1007 331.0265 15.14191595350312
STARLINK-1193,45100,53.0453,0.0004612,15.67609066,362.6352542661043,368.8558115144415,1 45100U 20006BJ  26156.28615519  .00043887  00000+0  39776-3 0  9999,2 45100  53.0453 162.2144 0004612 337.7911  22.2904 15.67609066350942
STARLINK-1143,45179,53.0328,0.0008305,15.89051044,299.39192481767077,310.4925194055968,1 45179U 20012B   26156.91668980  .00176724  22289-4  61411-3 0  9998,2 45179  53.0328 250.5257 0008305 346.6002  52.0012 15.89051044  6005
STARLINK-1202,45183,53.1567,0.0002236,15.3444958,461.0263030380829,464.08546089489755,1 45183U 20012F   26155.74535462  .00044666  00000+0  13231-2 0  9998,2 45183  53.1567 354.0759 0002236 177.4033 182.6982 15.34449580348296
STARLINK-1216,45185,53.1565,0.0002222,15.3482196,459.9296174109377,462.96912959532256,1 45185U 20012H   26156.24598250  .00042258  00000+0  12381-2 0  9990,2 45185  53.1565 351.5989 0002222 170.6859 189.4185 15.34821960348318
STARLINK-1225,45187,53.156,0.0001879,15.34747086,460.38662181496693,462.95702197023456,1 45187U 20012K   26156.24462499  .00038359  00000+0  11281-2 0  9992,2 45187  53.1560 352.0680 0001879 170.3977 189.7062 15.34747086348351
STARLINK-1230,45189,53.1559,0.0001944,15.34739677,460.3641716766806,463.0234979052484,1 45189U 20012M   26156.84156352  .00055565  00000+0  16259-2 0  9996,2 45189  53.1559 349.3428 0001944 182.1655 177.9339 15.34739677345672
